{
  "links" : {
    "next" : "https://api.nasa.gov/neo/rest/v1/feed?start_date=2016-01-16&end_date=2016-01-16&detailed=true&api_key=t0TVs3DtDT2H8Oy2Zy8m2eVrNsAVKAexjcZXUckd",
    "prev" : "https://api.nasa.gov/neo/rest/v1/feed?start_date=2016-01-14&end_date=2016-01-14&detailed=true&api_key=t0TVs3DtDT2H8Oy2Zy8m2eVrNsAVKAexjcZXUckd",
    "self" : "https://api.nasa.gov/neo/rest/v1/feed?start_date=2016-01-15&end_date=2016-01-15&detailed=true&api_key=t0TVs3DtDT2H8Oy2Zy8m2eVrNsAVKAexjcZXUckd"
  },
  "element_count" : 11,
  "near_earth_objects" : {
    "2016-01-15" : [ {
      "links" : {
        "self" : "https://api.nasa.gov/neo/rest/v1/neo/3736502?api_key=t0TVs3DtDT2H8Oy2Zy8m2eVrNsAVKAexjcZXUckd"
      },
      "neo_reference_id" : "3736502",
      "name" : "(2015 XK261)",
      "nasa_jpl_url" : "http://ssd.jpl.nasa.gov/sbdb.cgi?sstr=3736502",
      "absolute_magnitude_h" : 21.4,
      "estimated_diameter" : {
        "kilometers" : {
          "estimated_diameter_min" : 0.1394938229,
          "estimated_diameter_max" : 0.3119176705
        },
        "meters" : {
          "estimated_diameter_min" : 139.4938229344,
          "estimated_diameter_max" : 311.9176705226
        },
        "miles" : {
          "estimated_diameter_min" : 0.0866774163,
          "estimated_diameter_max" : 0.1938165949
        },
        "feet" : {
          "estimated_diameter_min" : 457.6569140361,
          "estimated_diameter_max" : 1023.3519701574
        }
      },
      "is_potentially_hazardous_asteroid" : true,
      "close_approach_data" : [ {
        "close_approach_date" : "2016-01-15",
        "epoch_date_close_approach" : 1452844800000,
        "relative_velocity" : {
          "kilometers_per_second" : "16.8927234469",
          "kilometers_per_hour" : "60813.8044090031",
          "miles_per_hour" : "37787.3330784719"
        },
        "miss_distance" : {
          "astronomical" : "0.2745979427",
          "lunar" : "106.8186035156",
          "kilometers" : "41079268",
          "miles" : "25525474"
        },
        "orbiting_body" : "Earth"
      } ],
      "orbital_data" : {
        "orbit_id" : "17",
        "orbit_determination_date" : "2017-04-06 08:29:56",
        "orbit_uncertainty" : "6",
        "minimum_orbit_intersection" : ".021474",
        "jupiter_tisserand_invariant" : "3.374",
        "epoch_osculation" : "2458000.5",
        "eccentricity" : ".5786581605073804",
        "semi_major_axis" : "2.250320061859561",
        "inclination" : "8.061251065282249",
        "ascending_node_longitude" : "208.9390434629856",
        "orbital_period" : "1233.005077010043",
        "perihelion_distance" : ".9481539943110529",
        "perihelion_argument" : "318.3747933007203",
        "aphelion_distance" : "3.552486129408069",
        "perihelion_time" : "2457434.310247597238",
        "mean_anomaly" : "165.3101959314432",
        "mean_motion" : ".2919696007034914",
        "equinox" : "J2000"
      }
    }, {
      "links" : {
        "self" : "https://api.nasa.gov/neo/rest/v1/neo/3740031?api_key=t0TVs3DtDT2H8Oy2Zy8m2eVrNsAVKAexjcZXUckd"
      },
      "neo_reference_id" : "3740031",
      "name" : "(2016 AY164)",
      "nasa_jpl_url" : "http://ssd.jpl.nasa.gov/sbdb.cgi?sstr=3740031",
      "absolute_magnitude_h" : 23.9,
      "estimated_diameter" : {
        "kilometers" : {
          "estimated_diameter_min" : 0.04411182,
          "estimated_diameter_max" : 0.0986370281
        },
        "meters" : {
          "estimated_diameter_min" : 44.1118199997,
          "estimated_diameter_max" : 98.6370281305
        },
        "miles" : {
          "estimated_diameter_min" : 0.0274098057,
          "estimated_diameter_max" : 0.0612901888
        },
        "feet" : {
          "estimated_diameter_min" : 144.7238235278,
          "estimated_diameter_max" : 323.6123073718
        }
      },
      "is_potentially_hazardous_asteroid" : false,
      "close_approach_data" : [ {
        "close_approach_date" : "2016-01-15",
        "epoch_date_close_approach" : 1452844800000,
        "relative_velocity" : {
          "kilometers_per_second" : "19.7044251022",
          "kilometers_per_hour" : "70935.9303679981",
          "miles_per_hour" : "44076.8285111597"
        },
        "miss_distance" : {
          "astronomical" : "0.1129439402",
          "lunar" : "43.9351921082",
          "kilometers" : "16896174",
          "miles" : "10498795"
        },
        "orbiting_body" : "Earth"
      } ],
      "orbital_data" : {
        "orbit_id" : "4",
        "orbit_determination_date" : "2017-04-06 08:29:10",
        "orbit_uncertainty" : "9",
        "minimum_orbit_intersection" : ".111555",
        "jupiter_tisserand_invariant" : "4.633",
        "epoch_osculation" : "2457401.5",
        "eccentricity" : ".2072515115677576",
        "semi_major_axis" : "1.356674111058571",
        "inclination" : "37.04488971877399",
        "ascending_node_longitude" : "293.3995110857155",
        "orbital_period" : "577.1806105603944",
        "perihelion_distance" : "1.075501350836838",
        "perihelion_argument" : "207.14261936",
        "aphelion_distance" : "1.637846871280303",
        "perihelion_time" : "2457428.760333828719",
        "mean_anomaly" : "342.9971416246805",
        "mean_motion" : ".6237215759040656",
        "equinox" : "J2000"
      }
    }, {
      "links" : {
        "self" : "https://api.nasa.gov/neo/rest/v1/neo/3740102?api_key=t0TVs3DtDT2H8Oy2Zy8m2eVrNsAVKAexjcZXUckd"
      },
      "neo_reference_id" : "3740102",
      "name" : "(2016 AE166)",
      "nasa_jpl_url" : "http://ssd.jpl.nasa.gov/sbdb.cgi?sstr=3740102",
      "absolute_magnitude_h" : 21.3,
      "estimated_diameter" : {
        "kilometers" : {
          "estimated_diameter_min" : 0.1460679643,
          "estimated_diameter_max" : 0.3266178974
        },
        "meters" : {
          "estimated_diameter_min" : 146.0679642714,
          "estimated_diameter_max" : 326.6178974458
        },
        "miles" : {
          "estimated_diameter_min" : 0.090762397,
          "estimated_diameter_max" : 0.2029508896
        },
        "feet" : {
          "estimated_diameter_min" : 479.2256199,
          "estimated_diameter_max" : 1071.581062656
        }
      },
      "is_potentially_hazardous_asteroid" : false,
      "close_approach_data" : [ {
        "close_approach_date" : "2016-01-15",
        "epoch_date_close_approach" : 1452844800000,
        "relative_velocity" : {
          "kilometers_per_second" : "19.3174233555",
          "kilometers_per_hour" : "69542.7240799544",
          "miles_per_hour" : "43211.1443040139"
        },
        "miss_distance" : {
          "astronomical" : "0.2064861119",
          "lunar" : "80.323097229",
          "kilometers" : "30889882",
          "miles" : "19194082"
        },
        "orbiting_body" : "Earth"
      } ],
      "orbital_data" : {
        "orbit_id" : "9",
        "orbit_determination_date" : "2017-04-06 08:29:06",
        "orbit_uncertainty" : "7",
        "minimum_orbit_intersection" : ".0868135",
        "jupiter_tisserand_invariant" : "3.852",
        "epoch_osculation" : "2458000.5",
        "eccentricity" : ".396023651955899",
        "semi_major_axis" : "1.751276506588072",
        "inclination" : "34.26589684035256",
        "ascending_node_longitude" : "106.82165063",
        "orbital_period" : "846.5069134063708",
        "perihelion_distance" : "1.057729588864495",
        "perihelion_argument" : "16.15271095374858",
        "aphelion_distance" : "2.444823424311649",
        "perihelion_time" : "2458267.504128131954",
        "mean_anomaly" : "246.4492603601929",
        "mean_motion" : ".4252770937821979",
        "equinox" : "J2000"
      }
    } ]
  }
}